HADES-R                 
1 62690U 25009CK  25144.44074436  .00027628  00000+0  10112-2 0  9998
2 62690  97.4101 225.3231 0004791 146.6029 213.5513 15.27999697 19682
