[
  {
    "OBJECT_NAME": "HADES-R",
    "OBJECT_ID": "2025-009CK",
    "EPOCH": "2025-05-24T10:34:40.312704",
    "MEAN_MOTION": 15.27999697,
    "ECCENTRICITY": 0.0004791,
    "INCLINATION": 97.4101,
    "RA_OF_ASC_NODE": 225.3231,
    "ARG_OF_PERICENTER": 146.6029,
    "MEAN_ANOMALY": 213.5513,
    "EPHEMERIS_TYPE": 0,
    "CLASSIFICATION_TYPE": "U",
    "NORAD_CAT_ID": 62690,
    "ELEMENT_SET_NO": 999,
    "REV_AT_EPOCH": 1968,
    "BSTAR": 0.0010112,
    "MEAN_MOTION_DOT": 0.00027628,
    "MEAN_MOTION_DDOT": 0
  }
]